[{"OBJECT_NAME":"VSP ROSE","OBJECT_ID":"2024-043AC","EPOCH":"2026-03-09T21:48:06.922944","MEAN_MOTION":15.27746075,"ECCENTRICITY":0.00099339,"INCLINATION":97.5443,"RA_OF_ASC_NODE":203.927,"ARG_OF_PERICENTER":232.2702,"MEAN_ANOMALY":127.7637,"EPHEMERIS_TYPE":0,"CLASSIFICATION_TYPE":"U","NORAD_CAT_ID":59124,"ELEMENT_SET_NO":999,"REV_AT_EPOCH":11182,"BSTAR":0.00025731354,"MEAN_MOTION_DOT":6.907e-5,"MEAN_MOTION_DDOT":0},{"OBJECT_NAME":"STARLINK-31364","OBJECT_ID":"2024-068J","EPOCH":"2026-03-09T22:37:54.050016","MEAN_MOTION":15.27568214,"ECCENTRICITY":0.0001134,"INCLINATION":43.0044,"RA_OF_ASC_NODE":29.444,"ARG_OF_PERICENTER":289.8415,"MEAN_ANOMALY":70.2315,"EPHEMERIS_TYPE":0,"CLASSIFICATION_TYPE":"U","NORAD_CAT_ID":59463,"ELEMENT_SET_NO":999,"REV_AT_EPOCH":10860,"BSTAR":1.3944955e-5,"MEAN_MOTION_DOT":1.22e-6,"MEAN_MOTION_DDOT":0}]
